NORAD_CAT_ID,OBJECT_NAME,OBJECT_TYPE,EPOCH,MEAN_MOTION,ECCENTRICITY,INCLINATION,RA_OF_ASC_NODE,ARG_OF_PERICENTER,MEAN_ANOMALY,BSTAR,MEAN_MOTION_DOT,MEAN_MOTION_DDOT,TLE_LINE0,TLE_LINE1,TLE_LINE2,SEMIMAJOR_AXIS,PERIOD,APOGEE,PERIGEE,DECAYED
55417.0,STARLINK-5616,PAYLOAD,2023-06-01 12:00:02,14.99317893,0.0003118,69.9993,116.4459,271.2115,261.5635,-0.0039223,-0.00047784,0.0,0 STARLINK-5616,1 55417U 23014AC  23152.50002315 -.00047784  00000-0 -39223-2 0  9994,2 55417  69.9993 116.4459 0003118 271.2115 261.5635 14.99317893  1307,6947.14,96.044,571.171,566.838,0.0
55417.0,STARLINK-5616,PAYLOAD,2023-06-01 22:00:00,14.99307565,0.0003133,69.9998,115.3938,265.7878,355.2232,0.00051298,6.19e-05,0.0,0 STARLINK-5616,1 55417U 23014AC  23152.91667824  .00006190  00000-0  51298-3 0  9992,2 55417  69.9998 115.3938 0003133 265.7878 355.2232 14.99307565  1302,6947.171,96.044,571.213,566.86,0.0
55417.0,STARLINK-5616,PAYLOAD,2023-06-02 01:38:36,14.99298677,0.000297,69.9987,115.011,267.7511,92.3309,-3.0611e-05,-4.68e-06,0.0,0 STARLINK-5616,1 55417U 23014AC  23153.06847549 -.00000468  00000-0 -30611-4 0  9994,2 55417  69.9987 115.0110 0002970 267.7511  92.3309 14.99298677 20031,6947.199,96.045,571.127,567.001,0.0
55417.0,STARLINK-5616,PAYLOAD,2023-06-02 08:02:53,14.99299311,0.0002854,69.9992,114.3381,260.8904,99.1933,-1.0938e-05,-2.28e-06,0.0,0 STARLINK-5616,1 55417U 23014AC  23153.33534130 -.00000228  00000-0 -10938-4 0  9997,2 55417  69.9992 114.3381 0002854 260.8904  99.1933 14.99299311 20078,6947.197,96.045,571.045,567.079,0.0
55417.0,STARLINK-5616,PAYLOAD,2023-06-02 20:51:27,14.99307345,0.0002876,69.9992,112.9892,266.8212,93.2618,-5.1689e-05,-7.26e-06,0.0,0 STARLINK-5616,1 55417U 23014AC  23153.86907109 -.00000726  00000-0 -51689-4 0  9996,2 55417  69.9992 112.9892 0002876 266.8212  93.2618 14.99307345 20152,6947.172,96.044,571.035,567.039,0.0
55417.0,STARLINK-5616,PAYLOAD,2023-06-03 03:15:44,14.99308403,0.0002897,69.9992,112.3158,265.4902,94.5927,-2.8686e-05,-4.45e-06,0.0,0 STARLINK-5616,1 55417U 23014AC  23154.13593543 -.00000445  00000-0 -28686-4 0  9999,2 55417  69.9992 112.3158 0002897 265.4902  94.5927 14.99308403 20192,6947.169,96.044,571.047,567.021,0.0
55417.0,STARLINK-5616,PAYLOAD,2023-06-03 08:03:57,14.99308024,0.0002889,69.9992,111.8104,265.6831,94.3998,-2.8935e-05,-4.48e-06,0.0,0 STARLINK-5616,1 55417U 23014AC  23154.33608514 -.00000448  00000-0 -28935-4 0  9996,2 55417  69.9992 111.8104 0002889 265.6831  94.3998 14.99308024 20220,6947.17,96.044,571.042,567.028,0.0
55417.0,STARLINK-5616,PAYLOAD,2023-06-04 03:16:50,14.99294937,0.0002962,69.999,109.7882,266.9658,93.1162,-3.9708e-05,-5.8e-06,0.0,0 STARLINK-5616,1 55417U 23014AC  23155.13669512 -.00000580  00000-0 -39708-4 0  9997,2 55417  69.9990 109.7882 0002962 266.9658  93.1162 14.99294937 20340,6947.211,96.045,571.133,567.018,0.0
55417.0,STARLINK-5616,PAYLOAD,2023-06-04 14:29:20,14.99298335,0.0002981,69.9991,108.6086,267.7983,92.2836,-1.055e-05,-2.23e-06,0.0,0 STARLINK-5616,1 55417U 23014AC  23155.60371042 -.00000223  00000-0 -10550-4 0  9995,2 55417  69.9991 108.6086 0002981 267.7983  92.2836 14.99298335 20418,6947.2,96.045,571.136,566.994,0.0
55417.0,STARLINK-5616,PAYLOAD,2023-06-04 20:53:37,14.99305372,0.0003032,69.999,107.9348,268.4958,91.5854,-1.6785e-05,-2.99e-06,0.0,0 STARLINK-5616,1 55417U 23014AC  23155.87057326 -.00000299  00000-0 -16785-4 0  9999,2 55417  69.9990 107.9348 0003032 268.4958  91.5854 14.99305372 20454,6947.178,96.044,571.15,566.937,0.0
55417.0,STARLINK-5616,PAYLOAD,2023-06-05 04:54:14,14.99107323,0.0003058,69.9989,107.0929,278.5071,81.5742,-0.0021439,-0.00026098,0.0,0 STARLINK-5616,1 55417U 23014AC  23156.20433788 -.00026098  00000-0 -21439-2 0  9992,2 55417  69.9989 107.0929 0003058 278.5071  81.5742 14.99107323 20501,6947.79,96.057,571.78,567.53,0.0
55417.0,STARLINK-5616,PAYLOAD,2023-06-05 06:30:23,14.99057671,0.0003225,69.9989,106.9248,268.4559,91.6231,-0.0026578,-0.00032262,0.0,0 STARLINK-5616,1 55417U 23014AC  23156.27110405 -.00032262  00000-0 -26578-2 0  9996,2 55417  69.9989 106.9248 0003225 268.4559  91.6231 14.99057671 20514,6947.944,96.06,572.049,567.568,0.0
55417.0,STARLINK-5616,PAYLOAD,2023-06-05 20:55:37,14.98748337,0.0002764,69.999,105.4112,270.0804,90.0038,-0.0052816,-0.00063227,0.0,0 STARLINK-5616,1 55417U 23014AC  23156.87196666 -.00063227  00000-0 -52816-2 0  9994,2 55417  69.9990 105.4112 0002764 270.0804  90.0038 14.98748337 20602,6948.9,96.08,572.685,568.844,0.0
55417.0,STARLINK-5616,PAYLOAD,2023-06-06 00:07:51,14.98731453,0.0002963,69.9989,105.0746,269.6319,90.4501,-0.0052791,-0.00063171,0.0,0 STARLINK-5616,1 55417U 23014AC  23157.00545553 -.00063171  00000-0 -52791-2 0  9993,2 55417  69.9989 105.0746 0002963 269.6319  90.4501 14.98731453 20627,6948.952,96.081,572.876,568.758,0.0
55417.0,STARLINK-5616,PAYLOAD,2023-06-06 06:32:18,14.98706332,0.0002968,69.9989,104.4006,267.8065,92.2755,-0.0051561,-0.00061675,0.0,0 STARLINK-5616,1 55417U 23014AC  23157.27243156 -.00061675  00000-0 -51561-2 0  9997,2 55417  69.9989 104.4006 0002968 267.8065  92.2755 14.98706332 20665,6949.029,96.083,572.957,568.832,0.0
55417.0,STARLINK-5616,PAYLOAD,2023-06-06 19:21:13,14.98659308,0.0002858,69.9987,103.0529,265.2575,94.8258,-0.004874,-0.00058262,0.0,0 STARLINK-5616,1 55417U 23014AC  23157.80640324 -.00058262  00000-0 -48740-2 0  9997,2 55417  69.9987 103.0529 0002858 265.2575  94.8258 14.98659308 20749,6949.175,96.086,573.026,569.054,0.0
55417.0,STARLINK-5616,PAYLOAD,2023-06-07 01:45:41,14.98633793,0.0003097,69.9988,102.3797,265.6512,94.4293,-0.004663,-0.00055728,0.0,0 STARLINK-5616,1 55417U 23014AC  23158.07340044 -.00055728  00000-0 -46630-2 0  9993,2 55417  69.9988 102.3797 0003097 265.6512  94.4293 14.98633793 20789,6949.254,96.088,573.271,568.966,0.0
55417.0,STARLINK-5616,PAYLOAD,2023-06-07 19:23:10,14.9832338,0.0002697,69.9989,100.5278,267.9019,92.1831,-1.5125e-05,-2.73e-06,0.0,0 STARLINK-5616,1 55417U 23014AC  23158.80775747 -.00000273  00000-0 -15125-4 0  9998,2 55417  69.9989 100.5278 0002697 267.9019  92.1831 14.98323380 20899,6950.213,96.107,573.953,570.204,0.0
55417.0,STARLINK-5616,PAYLOAD,2023-06-07 20:59:18,14.98323788,0.0002698,69.9989,100.3595,267.8121,92.2729,-1.1566e-05,-2.31e-06,0.0,0 STARLINK-5616,1 55417U 23014AC  23158.87451730 -.00000231  00000-0 -11566-4 0  9997,2 55417  69.9989 100.3595 0002698 267.8121  92.2729 14.98323788 20904,6950.212,96.107,573.952,570.202,0.0
55417.0,STARLINK-5616,PAYLOAD,2023-06-08 14:00:01,14.98314133,0.0002755,70.0008,98.5726,269.1318,313.2956,0.0014302,0.00017006,0.0,0 STARLINK-5616,1 55417U 23014AC  23159.58334491  .00017006  00000-0  14302-2 0  9995,2 55417  70.0008  98.5726 0002755 269.1318 313.2956 14.98314133  1305,6950.242,96.108,574.022,570.192,0.0
55417.0,STARLINK-5616,PAYLOAD,2023-06-08 22:00:00,14.98370248,0.000274,70.001,97.7321,267.4053,312.5066,-0.002552,-0.00030442,0.0,0 STARLINK-5616,1 55417U 23014AC  23159.91667824 -.00030442  00000-0 -25520-2 0  9996,2 55417  70.0010  97.7321 0002740 267.4053 312.5066 14.98370248 21058,6950.068,96.104,573.838,570.029,0.0
55417.0,STARLINK-5616,PAYLOAD,2023-06-09 05:01:58,14.98341565,0.0002609,69.9992,96.9929,270.1469,89.9391,4.5935e-05,4.55e-06,0.0,0 STARLINK-5616,1 55417U 23014AC  23160.20970247  .00000455  00000-0  45935-4 0  9999,2 55417  69.9992  96.9929 0002609 270.1469  89.9391 14.98341565 21107,6950.157,96.106,573.835,570.209,0.0
55417.0,STARLINK-5616,PAYLOAD,2023-06-09 13:02:39,14.98333983,0.0002684,69.9995,96.1514,257.7993,102.2865,-2.8977e-05,-4.39e-06,0.0,0 STARLINK-5616,1 55417U 23014AC  23160.54350708 -.00000439  00000-0 -28977-4 0  9991,2 55417  69.9995  96.1514 0002684 257.7993 102.2865 14.98333983 21153,6950.181,96.107,573.911,570.18,0.0
55417.0,STARLINK-5616,PAYLOAD,2023-06-10 01:51:44,14.98323659,0.0002536,69.9999,94.8059,273.1082,86.9787,-4.5727e-05,-6.38e-06,0.0,0 STARLINK-5616,1 55417U 23014AC  23161.07759606 -.00000638  00000-0 -45727-4 0  9993,2 55417  69.9999  94.8059 0002536 273.1082  86.9787 14.98323659 21232,6950.213,96.107,573.84,570.315,0.0
55417.0,STARLINK-5616,PAYLOAD,2023-06-10 13:04:40,14.9833106,0.0002581,69.9996,93.628,274.6106,85.4758,-8.6157e-06,-1.96e-06,0.0,0 STARLINK-5616,1 55417U 23014AC  23161.54491154 -.00000196  00000-0 -86157-5 0  9998,2 55417  69.9996  93.6280 0002581 274.6106  85.4758 14.98331060 21300,6950.19,96.107,573.848,570.261,0.0
55417.0,STARLINK-5616,PAYLOAD,2023-06-11 01:53:44,14.98340718,0.0002696,69.9995,92.2798,270.5493,89.5357,2.9494e-05,2.59e-06,0.0,0 STARLINK-5616,1 55417U 23014AC  23162.07898176  .00000259  00000-0  29494-4 0  9990,2 55417  69.9995  92.2798 0002696 270.5493  89.5357 14.98340718 21387,6950.16,96.106,573.899,570.151,0.0
55417.0,STARLINK-5616,PAYLOAD,2023-06-11 13:06:41,14.98329972,0.0002434,70.0001,91.1007,273.7195,86.3686,-2.7061e-05,-4.16e-06,0.0,0 STARLINK-5616,1 55417U 23014AC  23162.54630826 -.00000416  00000-0 -27061-4 0  9993,2 55417  70.0001  91.1007 0002434 273.7195  86.3686 14.98329972 21450,6950.193,96.107,573.75,570.366,0.0
55417.0,STARLINK-5616,PAYLOAD,2023-06-11 19:31:13,14.98322677,0.0002578,70.0016,90.4275,271.4787,88.6077,6.0671e-05,6.31e-06,0.0,0 STARLINK-5616,1 55417U 23014AC  23162.81335022  .00000631  00000-0  60671-4 0  9994,2 55417  70.0016  90.4275 0002578 271.4787  88.6077 14.98322677 21494,6950.216,96.107,573.872,570.289,0.0
55417.0,STARLINK-5616,PAYLOAD,2023-06-12 01:55:45,14.9831927,0.0002409,70.0015,89.755,268.1418,91.9465,7.5728e-05,8.11e-06,0.0,0 STARLINK-5616,1 55417U 23014AC  23163.08039306  .00000811  00000-0  75728-4 0  9999,2 55417  70.0015  89.7550 0002409 268.1418  91.9465 14.98319270 21535,6950.226,96.108,573.765,570.417,0.0
55417.0,STARLINK-5616,PAYLOAD,2023-06-12 05:08:02,14.98317491,0.0002499,70.0016,89.4186,269.5811,90.5062,7.5524e-05,8.08e-06,0.0,0 STARLINK-5616,1 55417U 23014AC  23163.21391496  .00000808  00000-0  75524-4 0  9995,2 55417  70.0016  89.4186 0002499 269.5811  90.5062 14.98317491 21552,6950.232,96.108,573.833,570.36,0.0
